FENGYUN 1C DEB          
1 37924U 99025ENZ 17345.87104238  .00000783  00000-0  40916-3 0  9994
2 37924  98.9601  19.9878 0054109 152.4865 207.9191 14.16643625229103
